{
  "saudi_cities": [
    {
      "name_en": "Riyadh",
      "name_ar": "الرياض",
      "region": "Riyadh Region"
    },
    {
      "name_en": "Jeddah",
      "name_ar": "جدة",
      "region": "Makkah Region"
    },
    {
      "name_en": "Mecca",
      "name_ar": "مكة المكرمة",
      "region": "Makkah Region"
    },
    {
      "name_en": "Medina",
      "name_ar": "المدينة المنورة",
      "region": "Madinah Region"
    },
    {
      "name_en": "Dammam",
      "name_ar": "الدمام",
      "region": "Eastern Region"
    },
    {
      "name_en": "Al Khobar",
      "name_ar": "الخبر",
      "region": "Eastern Region"
    },
    {
      "name_en": "Dhahran",
      "name_ar": "الظهران",
      "region": "Eastern Region"
    },
    {
      "name_en": "Tabuk",
      "name_ar": "تبوك",
      "region": "Tabuk Region"
    },
    {
      "name_en": "Buraidah",
      "name_ar": "بريدة",
      "region": "Al-Qassim Region"
    },
    {
      "name_en": "Khamis Mushait",
      "name_ar": "خميس مشيط",
      "region": "Asir Region"
    },
    {
      "name_en": "Hail",
      "name_ar": "حائل",
      "region": "Hail Region"
    },
    {
      "name_en": "Najran",
      "name_ar": "نجران",
      "region": "Najran Region"
    },
    {
      "name_en": "Jazan",
      "name_ar": "جازان",
      "region": "Jazan Region"
    },
    {
      "name_en": "Taif",
      "name_ar": "الطائف",
      "region": "Makkah Region"
    },
    {
      "name_en": "Yanbu",
      "name_ar": "ينبع",
      "region": "Madinah Region"
    },
    {
      "name_en": "Abha",
      "name_ar": "أبها",
      "region": "Asir Region"
    },
    {
      "name_en": "Al Qatif",
      "name_ar": "القطيف",
      "region": "Eastern Region"
    },
    {
      "name_en": "Jubail",
      "name_ar": "الجبيل",
      "region": "Eastern Region"
    },
    {
      "name_en": "Al Ahsa",
      "name_ar": "الأحساء",
      "region": "Eastern Region"
    },
    {
      "name_en": "Al Kharj",
      "name_ar": "الخرج",
      "region": "Riyadh Region"
    },
    {
      "name_en": "Arar",
      "name_ar": "عرعر",
      "region": "Northern Borders Region"
    },
    {
      "name_en": "Sakaka",
      "name_ar": "سكاكا",
      "region": "Al Jouf Region"
    },
    {
      "name_en": "Hafar Al Batin",
      "name_ar": "حفر الباطن",
      "region": "Eastern Region"
    },
    {
      "name_en": "Al Majmaah",
      "name_ar": "المجمعة",
      "region": "Riyadh Region"
    },
    {
      "name_en": "Unaizah",
      "name_ar": "عنيزة",
      "region": "Al-Qassim Region"
    },
    {
      "name_en": "Al Qunfudhah",
      "name_ar": "القنفذة",
      "region": "Makkah Region"
    },
    {
      "name_en": "Al Lith",
      "name_ar": "الليث",
      "region": "Makkah Region"
    },
    {
      "name_en": "Rabigh",
      "name_ar": "رابغ",
      "region": "Makkah Region"
    },
    {
      "name_en": "Al Wajh",
      "name_ar": "الوجه",
      "region": "Tabuk Region"
    },
    {
      "name_en": "Duba",
      "name_ar": "ضباء",
      "region": "Tabuk Region"
    },
    {
      "name_en": "Al Ula",
      "name_ar": "العلا",
      "region": "Madinah Region"
    },
    {
      "name_en": "Badr",
      "name_ar": "بدر",
      "region": "Madinah Region"
    },
    {
      "name_en": "Al Dawadmi",
      "name_ar": "الدوادمي",
      "region": "Riyadh Region"
    },
    {
      "name_en": "Al Zulfi",
      "name_ar": "الزلفي",
      "region": "Riyadh Region"
    },
    {
      "name_en": "Shaqra",
      "name_ar": "شقراء",
      "region": "Riyadh Region"
    },
    {
      "name_en": "Al Aflaj",
      "name_ar": "الأفلاج",
      "region": "Riyadh Region"
    },
    {
      "name_en": "Wadi Al Dawasir",
      "name_ar": "وادي الدواسر",
      "region": "Riyadh Region"
    },
    {
      "name_en": "Al Rass",
      "name_ar": "الرس",
      "region": "Al-Qassim Region"
    },
    {
      "name_en": "Al Bukayriyah",
      "name_ar": "البكيرية",
      "region": "Al-Qassim Region"
    },
    {
      "name_en": "Ar Rass",
      "name_ar": "الرس",
      "region": "Al-Qassim Region"
    },
    {
      "name_en": "Bishah",
      "name_ar": "بيشة",
      "region": "Asir Region"
    },
    {
      "name_en": "Al Namas",
      "name_ar": "النماص",
      "region": "Asir Region"
    },
    {
      "name_en": "Muhayil",
      "name_ar": "محايل",
      "region": "Asir Region"
    },
    {
      "name_en": "Samtah",
      "name_ar": "صامطة",
      "region": "Jazan Region"
    },
    {
      "name_en": "Sabya",
      "name_ar": "صبيا",
      "region": "Jazan Region"
    },
    {
      "name_en": "Abu Arish",
      "name_ar": "أبو عريش",
      "region": "Jazan Region"
    },
    {
      "name_en": "Sharurah",
      "name_ar": "شرورة",
      "region": "Najran Region"
    },
    {
      "name_en": "Al Khafji",
      "name_ar": "الخفجي",
      "region": "Eastern Region"
    },
    {
      "name_en": "Ras Tanura",
      "name_ar": "رأس تنورة",
      "region": "Eastern Region"
    },
    {
      "name_en": "Qaisumah",
      "name_ar": "القيصومة",
      "region": "Eastern Region"
    },
    {
      "name_en": "Al Mubarraz",
      "name_ar": "المبرز",
      "region": "Eastern Region"
    },
    {
      "name_en": "Hofuf",
      "name_ar": "الهفوف",
      "region": "Eastern Region"
    },
    {
      "name_en": "Turaif",
      "name_ar": "طريف",
      "region": "Northern Borders Region"
    },
    {
      "name_en": "Rafha",
      "name_ar": "رفحاء",
      "region": "Northern Borders Region"
    },
    {
      "name_en": "Qurayyat",
      "name_ar": "القريات",
      "region": "Al Jouf Region"
    },
    {
      "name_en": "Dumat Al Jandal",
      "name_ar": "دومة الجندل",
      "region": "Al Jouf Region"
    },
    {
      "name_en": "Al Quwayiyah",
      "name_ar": "القويعية",
      "region": "Riyadh Region"
    },
    {
      "name_en": "Al Muzahimiyah",
      "name_ar": "المزاحمية",
      "region": "Riyadh Region"
    },
    {
      "name_en": "Diriyah",
      "name_ar": "الدرعية",
      "region": "Riyadh Region"
    },
    {
      "name_en": "Rumah",
      "name_ar": "رماح",
      "region": "Riyadh Region"
    },
    {
      "name_en": "Dhurma",
      "name_ar": "ضرماء",
      "region": "Riyadh Region"
    }
  ]
}
